satname,norad_id,inclination_deg,eccentricity,mean_motion_rev_per_day,perigee_km,apogee_km,l1,l2
STARLINK-1422,45696,53.1578,0.0002185,15.34946205,459.5859162934112,462.57465424707334,1 45696U 20035AR  26158.81503149  .00046439  00000+0  13534-2 0  9996,2 45696  53.1578 349.9243 0002185 161.0132 199.0952 15.34946205332782
STARLINK-1351,45697,53.0436,0.0002836,15.66454278,367.14600832500764,370.9730181873265,1 45697U 20035AS  26158.66072654  .00050211  00000+0  47578-3 0  9991,2 45697  53.0436 303.2743 0002836 144.6664 215.4539 15.66454278333417
STARLINK-1400,45700,53.0429,0.000179,15.65185061,371.49817813560276,373.9149801369331,1 45700U 20035AV  26158.80246501  .00046341  00000+0  46262-3 0  9994,2 45700  53.0429 305.1410 0001790  54.9597 305.1586 15.65185061333398
STARLINK-1403,45701,53.1564,0.0001523,15.33966591,462.949670181476,465.03378259153396,1 45701U 20035AW  26158.76259352  .00031608  00000+0  95566-3 0  9999,2 45701  53.1564 337.7104 0001523 197.5535 162.5415 15.33966591332947
STARLINK-1407,45703,53.0266,0.0006408,15.73923348,343.386751869215,352.00658029566694,1 45703U 20035AY  26158.47387238  .00072037  00000+0  49704-3 0  9998,2 45703  53.0266 233.3368 0006408  26.6785 333.4562 15.73923348334374
STARLINK-1411,45706,53.0325,0.0010647,15.9322957,286.14904328408556,300.3550991723587,1 45706U 20035BB  26158.83337963  .00397314  72405-4  10995-2 0  9991,2 45706  53.0325 252.8501 0010647 342.8115 297.0693 15.93229570  6057
STARLINK-1423,45710,53.0441,0.0005336,15.69180861,357.6452368777309,364.83750147331466,1 45710U 20035BF  26158.67050360  .00061081  00000+0  51610-3 0  9997,2 45710  53.0441 302.2385 0005336  90.9057 269.2571 15.69180861333417
STARLINK-1433,45711,53.0433,0.0005041,15.68749955,359.077489971236,365.87337542588193,1 45711U 20035BG  26158.84705233  .00056234  00000+0  48434-3 0  9997,2 45711  53.0433 299.9682 0005041  98.4915 261.6672 15.68749955333467
STARLINK-1434,45712,53.0507,0.0001322,15.34404302,461.78609639698334,463.5948111757634,1 45712U 20035BH  26158.73805653  .00050869  00000+0  15062-2 0  9991,2 45712  53.0507 320.3961 0001322  75.2424 284.8723 15.34404302333185
STARLINK-1465,45731,53.0427,0.0001492,15.68444679,362.3442189319285,364.3558786672902,1 45731U 20038B   26158.83337963  .00014038  00000+0  12689-3 0  9991,2 45731  53.0427 145.6206 0001492  93.7240 115.8810 15.68444679  5999
STARLINK-1471,45735,53.0443,0.0002991,15.53544536,404.35753530223155,408.4160374312369,1 45735U 20038F   26158.84254050  .00026420  00000+0  41412-3 0  9995,2 45735  53.0443  68.5470 0002991 118.4688 241.6623 15.53544536331521
STARLINK-1480,45741,53.0473,0.0006514,15.65279289,368.0383247529162,376.8329707984385,1 45741U 20038M   26158.20661211  .00044947  00000+0  44690-3 0  9998,2 45741  53.0473 142.4056 0006514  31.5842 328.5563 15.65279289330435
STARLINK-1500,45744,53.0337,0.000197,15.39185406,447.17201766438757,449.86171928856766,1 45744U 20038Q   26158.21185692  .00025920  00000+0  66509-3 0  9999,2 45744  53.0337 131.3424 0001970 114.9525 245.1683 15.39185406330589
STARLINK-1504,45746,53.0207,0.0003473,15.59057976,388.0314806328324,392.73289406036474,1 45746U 20038S   26158.47174287  .00034574  00000+0  43978-3 0  9997,2 45746  53.0207  67.0809 0003473 102.6849 257.4551 15.59057976331495
STARLINK-1506,45747,53.0754,0.0002166,15.28316335,479.35947391132686,482.33078496980033,1 45747U 20038T   26158.69910622  .00009120  00000+0  33846-3 0  9995,2 45747  53.0754 145.2666 0002166 156.9796 203.1301 15.28316335330442
STARLINK-1464,45751,53.0455,0.0004647,15.54122179,401.5535607520933,407.8575346159114,1 45751U 20038X   26158.22663162  .00028842  00000+0  44185-3 0  9993,2 45751  53.0455 135.3348 0004647  38.7898 321.3444 15.54122179330539
STARLINK-1477,45754,53.0484,0.0001552,15.18894353,508.1119940482813,510.2498175262381,1 45754U 20038AA  26158.71391047  .00019968  00000+0  95790-3 0  9997,2 45754  53.0484 162.3224 0001552 357.1556   2.9429 15.18894353330195
STARLINK-1478,45755,53.0446,0.000477,15.68373423,360.3384514456093,366.77002488682047,1 45755U 20038AB  26158.18629844  .00059025  00000+0  51589-3 0  9994,2 45755  53.0446 120.3471 0004770  73.3332 286.8207 15.68373423330727
STARLINK-1493,45759,53.0455,0.0006981,15.65049592,368.3831014758225,377.8091731821605,1 45759U 20038AF  26158.78260424  .00055872  00000+0  55844-3 0  9993,2 45759  53.0455 127.0937 0006981  30.3179 329.8238 15.65049592330681
STARLINK-1494,45760,53.0351,0.0004479,16.12211875,237.81786071119495,243.74708877667035,1 45760U 20038AG  26158.98990814  .00775130  35383-3  69372-3 0  9993,2 45760  53.0351  53.6798 0004479 231.0915 128.9720 16.12211875331734
STARLINK-1502,45764,53.0454,0.000601,15.61661794,378.79313196441035,386.91984613825025,1 45764U 20038AL  26158.64247940  .00089061  00000+0  10090-2 0  9992,2 45764  53.0454 131.5819 0006010   7.1296 352.9801 15.61661794330627
STARLINK-1470,45772,53.0439,0.0004381,15.35233699,457.2305454860816,463.2223195256429,1 45772U 20038AU  26158.58491625  .00035005  00000+0  10148-2 0  9998,2 45772  53.0439 114.6474 0004381  39.7771 320.3551 15.35233699330852
STARLINK-1482,45773,53.1567,0.0005059,15.37788421,449.1949405204896,456.1063314505791,1 45773U 20038AV  26158.53040109  .00040222  00000+0  10720-2 0  9994,2 45773  53.1567 131.3293 0005059  29.5332 330.5957 15.37788421330633
STARLINK-1496,45780,53.0465,6.39e-05,15.68642242,362.3532533303751,363.2147430339428,1 45780U 20038BC  26158.55331954  .00062852  00000+0  54300-3 0  9991,2 45780  53.0465 102.5605 0000639 111.1549 248.9535 15.68642242331001
STARLINK-1513,45786,53.1602,0.0001478,15.31703808,469.71638145716315,471.7409061414701,1 45786U 20038BJ  26158.25002742  .00001639  00000+0  64558-4 0  9997,2 45786  53.1602 134.5824 0001478  91.3494 268.7676 15.31703808330561
STARLINK-1522,46027,53.0596,0.0002398,15.13114567,525.052734250191,528.3642981597623,1 46027U 20055A   26158.49770741  .00018225  00000+0  10314-2 0  9990,2 46027  53.0596  80.4392 0002398  51.8816 308.2392 15.13114567322464
STARLINK-1523,46028,53.1605,9.87e-05,15.30506182,473.62468193562927,474.9773532002964,1 46028U 20055B   26158.45975035  .00011554  00000+0  39787-3 0  9994,2 46028  53.1605  69.7247 0000987 117.7144 242.3957 15.30506182322646
STARLINK-1526,46029,53.1562,6.59e-05,15.3020896,474.73668246655143,475.6399507432807,1 46029U 20055C   26158.45437985  .00003567  00000+0  13245-3 0  9998,2 46029  53.1562  69.7690 0000659 108.2741 251.8332 15.30208960322639
STARLINK-1555,46032,53.1597,0.0001213,15.30218046,474.3298827754825,475.9924929158533,1 46032U 20055F   26158.04668444  .00000283  00000+0  21681-4 0  9999,2 46032  53.1597  71.6432 0001213  90.7916 269.3224 15.30218046322576
STARLINK-1556,46033,53.1599,0.0001207,15.30178683,474.4515116005514,476.10592615508904,1 46033U 20055G   26158.48705955 -.00000893  00000+0 -18053-4 0  9995,2 46033  53.1599  69.6165 0001207  70.0916 290.0215 15.30178683322611
STARLINK-1557,46034,53.1597,8.76e-05,15.30205025,474.59971338918876,475.8004180431026,1 46034U 20055H   26158.49019568  .00004678  00000+0  16995-3 0  9990,2 46034  53.1597  69.5982 0000876  62.7306 297.3784 15.30205025322610
STARLINK-1558,46035,53.1582,0.0001181,15.30214076,474.36366542682936,475.98241725859407,1 46035U 20055J   26158.04037006  .00010882  00000+0  37882-3 0  9991,2 46035  53.1582  71.6844 0001181  85.2783 274.8353 15.30214076322578
STARLINK-1560,46036,53.1596,0.0001038,15.3020536,474.4876891885897,475.9104417557819,1 46036U 20055K   26158.48387243  .00000616  00000+0  32922-4 0  9996,2 46036  53.1596  69.6366 0001038 105.8839 254.2276 15.30205360322642
STARLINK-1569,46039,53.1588,0.0001386,15.30216067,474.21722872537975,476.11696462097825,1 46039U 20055N   26158.04352948  .00011058  00000+0  38475-3 0  9995,2 46039  53.1588  71.6631 0001386  91.5642 268.5517 15.30216067322566
STARLINK-1582,46043,53.159,6.76e-05,15.31725388,470.2013369950946,471.1272949330123,1 46043U 20055S   26158.45304138  .00007095  00000+0  23998-3 0  9993,2 46043  53.1590  69.1682 0000676  75.7685 284.3391 15.31725388322630
STARLINK-1591,46045,53.16,0.0001336,15.30204949,474.28468677491765,476.11589849950997,1 46045U 20055U   26158.01087439  .00000980  00000+0  45200-4 0  9996,2 46045  53.1600  71.8202 0001336  76.3886 283.7263 15.30204949322541
STARLINK-1524,46047,53.1592,0.0001356,15.31716746,469.76137577423106,471.61877767743863,1 46047U 20055W   26158.42237841  .00004403  00000+0  15349-3 0  9991,2 46047  53.1592  56.6104 0001356  86.6785 273.4371 15.31716746322819
STARLINK-1527,46048,53.1579,0.0001109,15.31709668,469.95163830964793,471.4707128349892,1 46048U 20055X   26158.41771679  .00003931  00000+0  13833-3 0  9994,2 46048  53.1579  56.6143 0001109  85.8351 274.2777 15.31709668322784
STARLINK-1540,46051,53.1596,0.0001108,15.31717662,469.928496491053,471.4461959661776,1 46051U 20055AA  26158.01225801  .00008522  00000+0  28591-3 0  9993,2 46051  53.1596  58.7106 0001108  87.0190 273.0938 15.31717662322760
STARLINK-1541,46052,53.1579,0.000371,15.84176069,316.161225050716,321.13023783744757,1 46052U 20055AB  26158.83337963  .00161349  00000+0  69030-3 0  9997,2 46052  53.1579  38.7247 0003710 231.1034 216.1548 15.84176069  6049
STARLINK-1543,46053,53.1595,0.0001252,15.31713553,469.84212039412523,471.5570690774475,1 46053U 20055AC  26158.44101925  .00004486  00000+0  15617-3 0  9992,2 46053  53.1595  56.5243 0001252  61.9071 298.2056 15.31713553322820
STARLINK-1548,46054,53.1615,0.000111,15.31721658,469.91521643512624,471.4356527956106,1 46054U 20055AD  26158.45500388  .00003668  00000+0  12982-3 0  9993,2 46054  53.1615  56.5287 0001110  80.1449 279.9678 15.31721658322828
STARLINK-1554,46055,53.1598,9.84e-05,15.3171297,470.027406911443,471.3752582952993,1 46055U 20055AE  26158.43636312  .00002384  00000+0  88513-4 0  9997,2 46055  53.1598  56.5578 0000984  93.4666 266.6448 15.31712970322823
